ONEWEB-0158             
1 48054U 21025N   24184.81207637 -.00000141  00000+0 -42001-3 0  9991
2 48054  87.8932 102.4035 0002059  81.6914 278.4449 13.13469762159858
ONEWEB-0157             
1 48055U 21025P   24184.83586601  .00000392  00000+0  10380-2 0  9995
2 48055  87.8930 102.4137 0001772  80.5247 279.6082 13.13472821159797
ONEWEB-0162             
1 48056U 21025Q   24184.79937346 -.00000306  00000+0 -87179-3 0  9995
2 48056  87.8929 102.4162 0001935  79.5913 280.5434 13.13471771159765
ONEWEB-0155             
1 48057U 21025R   24184.82001376  .00000061  00000+0  13079-3 0  9999
2 48057  87.8930 102.4230 0001873  72.3699 287.7635 13.13470847159908
ONEWEB-0149             
1 48058U 21025S   24184.84063751  .00000337  00000+0  88665-3 0  9996
2 48058  87.8931 102.4154 0001870  84.6531 275.4812 13.13471822159717
ONEWEB-0148             
1 48059U 21025T   24184.80570970 -.00000264  00000+0 -75793-3 0  9998
2 48059  87.8933 102.4327 0001625  96.7963 263.3351 13.13468629159831
ONEWEB-0160             
1 48060U 21025U   24184.82160131  .00000086  00000+0  20049-3 0  9990
2 48060  87.8933 102.4256 0002914  81.3555 278.7904 13.13470081159786
ONEWEB-0163             
1 48061U 21025V   24184.80730031 -.00000316  00000+0 -89964-3 0  9990
2 48061  87.8929 102.4203 0001680  76.4987 283.6329 13.13469064159906
